AKARI (ASTRO-F)         
1 28939U 06005A   10088.70888968  .00000150  00000-0  43161-4 0  2418
2 28939  98.2537  94.5035 0008597  22.3326 337.8235 14.57609678217688
FORMOSAT-3 FM6          
1 29047U 06011A   10088.50556962  .00000099  00000-0  56792-4 0  2012
2 29047  71.9809 160.5088 0051848  11.7031 348.5328 14.27071335208438
FORMOSAT-3 FM1          
1 29048U 06011B   10088.46422344  .00000390  00000-0  17471-3 0  2502
2 29048  71.9685  75.7195 0045885 321.9022  37.8862 14.27145554210908
FORMOSAT-3 FM5          
1 29049U 06011C   10088.47956515  .00000361  00000-0  16364-3 0  1974
2 29049  72.0193 226.3568 0035496  22.6855 337.5818 14.27158010206681
FORMOSAT-3 FM3          
1 29050U 06011D   10088.90866739  .00001102  00000-0  26646-3 0  4816
2 29050  72.0112  17.7329 0054402 247.8245 111.7059 14.54147183212778
FORMOSAT-3 FM4          
1 29051U 06011E   10088.65191164  .00000373  00000-0  16522-3 0  2552
2 29051  72.0065 134.5289 0071426 253.4020 105.9236 14.27154478209298
FORMOSAT-3 FM2          
1 29052U 06011F   10088.20893513  .00000360  00000-0  16273-3 0  2752
2 29052  72.0348 198.3862 0041438 352.2543   7.7944 14.27166359207537
CLOUDSAT                
1 29107U 06016A   10089.14050050  .00000322  00000-0  81500-4 0  2386
2 29107  98.1892  33.9726 0001256  88.8781 271.2533 14.57126102208510
CALIPSO                 
1 29108U 06016B   10089.14071613  .00000187  00000-0  51436-4 0  2480
2 29108  98.1899  34.0225 0001267  83.6035 276.5313 14.57123784208495
HINODE (SOLAR-B)        
1 29479U 06041A   10088.61586063  .00000153  00000-0  38958-4 0  1239
2 29479  98.0903  92.5397 0014843 215.6074 144.4139 14.62966417187718
SJ-6C                   
1 29505U 06046A   10089.06148596  .00000421  00000-0  48445-4 0  8494
2 29505  97.6931  93.5015 0002757 179.2791 180.8409 14.90725572186678
SJ-6D                   
1 29506U 06046B   10089.09855988  .00000621  00000-0  69957-4 0  8390
2 29506  97.6963  92.4449 0000798 230.8934 129.2220 14.90024345186598
COROT                   
1 29678U 06063A   10088.32824295  .00000028  00000-0  12231-4 0   779
2 29678  89.9366   9.9013 0004923   0.9042 359.2166 13.98126635165952
AIM                     
1 31304U 07015A   10088.34504351  .00000288  00000-0  33663-4 0  9977
2 31304  97.8002 191.3629 0011843   1.3086 358.8202 14.92391240159328
FGRST (GLAST)           
1 33053U 08029A   10088.44057769  .00000279  00000-0  00000+0 0  4691
2 33053  25.5809 223.3040 0014650 167.5827 192.5111 15.05035083 98907
KORONAS-FOTON           
1 33504U 09003A   10087.85787030  .00000040  00000-0  75052-6 0  3220
2 33504  82.4775 307.6595 0016217 181.2212 178.8978 15.05419311 63534
TATIANA 2               
1 35868U 09049D   10088.78946393  .00000177  00000-0  10000-3 0  1674
2 35868  98.7674 143.2033 0003101 227.7043 132.3832 14.22101276 27444
UGATUSAT                
1 35869U 09049E   10088.73494658  .00000176  00000-0  10000-3 0  1648
2 35869  98.7666 143.0952 0003915 229.8399 130.2404 14.21978087 27436
SUMBANDILA (SO-67)      
1 35870U 09049F   10089.06278469  .00001004  00000-0  46405-4 0  5821
2 35870  97.3408 140.1882 0008440 344.9466 102.9090 15.22422142 29425
WISE                    
1 36119U 09071A   10088.89727413  .00000612  00000-0  38908-4 0   863
2 36119  97.5091  94.5234 0003269 120.0884 240.0671 15.12450777 15918
SDO                     
1 36395U 10005A   10086.51399244 -.00000083  00000-0  00000-0 0   526
2 36395  28.0627 189.0129 0001443 275.7539 162.3866  1.00276912   643
